{"restaurants":[{"name":"Chipotle Mexican Grill","street_address":"2000 E Rio Salado Pkwy","city":"Tempe","state":"AZ","zip":"85281","category":"Mexican Restaurant"},{"name":"Filiberto's Mexican Food","street_address":"1270 E Apache Blvd","city":"Tempe","state":"AZ","zip":"85281","category":"Mexican Restaurant"},{"name":"Susie's Mexican Cafe","street_address":"2405 E University Dr","city":"Tempe","state":"AZ","zip":"85281","category":"Mexican Restaurant"},{"name":"Manuel's Mexican Food","street_address":"2350 E Southern Ave","city":"Tempe","state":"AZ","zip":"85282","category":"Mexican Restaurant"},{"name":"Sandbar Mexican Grill","street_address":"7200 W Ray Rd","city":"Chandler","state":"AZ","zip":"85226","category":"Mexican Restaurant"},{"name":"Filiberto's Mexican Food","street_address":"1250 W Broadway Rd","city":"Tempe","state":"AZ","zip":"85282","category":"Mexican Restaurant"},{"name":"Macayo's Mexican Kitchen","street_address":"1920 S Dobson Rd","city":"Mesa","state":"AZ","zip":"85202","category":"Mexican Restaurant"},{"name":"Rosita's Fine Mexican Food","street_address":"960 W University Dr","city":"Tempe","state":"AZ","zip":"85281","category":"Mexican Restaurant"},{"name":"Los Olivos Mexican Patio","street_address":"7328 E 2nd St","city":"Scottsdale","state":"AZ","zip":"85251","category":"Mexican Restaurant"},{"name":"Abuelo's Mexican Restaurant - Chandler","street_address":"3440 W Chandler Blvd","city":"Chandler","state":"AZ","zip":"85226","category":"Mexican Restaurant"},{"name":"Chipotle Mexican Grill","street_address":"1038 S Mill Ave","city":"Tempe","state":"AZ","zip":"85281","category":"Mexican Restaurant"},{"name":"Losbetos Mexican Food","street_address":"3001 N Hayden Rd","city":"Scottsdale","state":"AZ","zip":"85251","category":"Mexican Restaurant"},{"name":"Carolina's Mexican Food","street_address":"1202 E Mohave St","city":"Phoenix","state":"AZ","zip":"85034","category":"Mexican Restaurant"},{"name":"Macayo’s Mexican Kitchen","street_address":"4001 N Central Ave","city":"Phoenix","state":"AZ","zip":"85012","category":"Mexican Restaurant"},{"name":"Amado's Mexican Food","street_address":"6022 S McClintock Dr","city":"Tempe","state":"AZ","zip":"85283","category":"Mexican Restaurant"},{"name":"Rivas Mexican Food","street_address":"240 W Southern Ave","city":"Tempe","state":"AZ","zip":"85282","category":"Mexican Restaurant"},{"name":"Morenos Mexican Grill","street_address":"760 E Broadway Rd","city":"Mesa","state":"AZ","zip":"85204","category":"Bar"},{"name":"Serrano's Mexican Food Restaurants","street_address":"6440 S Rural Rd","city":"Tempe","state":"AZ","zip":"85283","category":"Mexican Restaurant"},{"name":"Chipotle Mexican Grill","street_address":"3395 W Chandler Blvd","city":"Chandler","state":"AZ","zip":"85226","category":"Mexican Restaurant"},{"name":"Filiberto's Mexican Food","street_address":"1826 E Guadalupe","city":"Tempe","state":"AZ","zip":null,"category":"Mexican Restaurant"},{"name":"Adrians #2 Real Mexican Food","street_address":"1011 W Main St","city":"Mesa","state":"AZ","zip":"85201","category":"Mexican Restaurant"},{"name":"Sandbar Mexican Grill","street_address":"21001 N Tatum Blvd","city":"Phoenix","state":"AZ","zip":"85050","category":"Bar"},{"name":"Garcia's Mexican Restaurant","street_address":"4601 E Thomas Rd","city":"Phoenix","state":"AZ","zip":"85018","category":"Mexican Restaurant"},{"name":"Arriba Mexican Grill","street_address":"1812 E Camelback Rd","city":"Phoenix","state":"AZ","zip":"85016","category":"Mexican Restaurant"},{"name":"On The Border Mexican Grill & Cantina","street_address":"5005 E. Ray Rd.","city":"Phoenix","state":"AZ","zip":"85044","category":"Mexican Restaurant"},{"name":"Chipotle Mexican Grill","street_address":"815 E Baseline Rd","city":"Tempe","state":"AZ","zip":"85283","category":"Mexican Restaurant"},{"name":"Rito's Market & Mexican Take Out","street_address":"907 N 14th St","city":"Phoenix","state":"AZ","zip":"85006","category":"Mexican Restaurant"},{"name":"Filiberto's Mexican Food","street_address":"3220 E Baseline Rd Ste 134","city":"Phoenix","state":"AZ","zip":"85042","category":"Mexican Restaurant"},{"name":"Chipotle Mexican Grill","street_address":"2415 E Baseline Rd","city":"Phoenix","state":"AZ","zip":"85042","category":"Mexican Restaurant"},{"name":"Garcia's Mexican Restaurant","street_address":"5000 S Arizona Mills Cir","city":"Tempe","state":"AZ","zip":"85282","category":"Mexican Restaurant"},{"name":"YZ’s Hot Pot & BBQ","street_address":"937 E Broadway Rd Ste 2","city":"Tempe","state":"AZ","zip":"85282","category":"Asian Restaurant"},{"name":"Angry Crab Shack and BBQ","street_address":"2808 E Indian School Rd","city":"Phoenix","state":"AZ","zip":"85016","category":"Seafood Restaurant"},{"name":"bbq joint","street_address":null,"city":"Tempe","state":"AZ","zip":"85281","category":"BBQ Joint"},{"name":"Paradise Hawaiian BBQ","street_address":"580 S College Ave","city":"Tempe","state":"AZ","zip":"85281","category":"Hawaiian Restaurant"},{"name":"Waldo's BBQ","street_address":"4500 E Main St","city":"Mesa","state":"AZ","zip":"85205","category":"BBQ Joint"},{"name":"Ono Hawaiian BBQ","street_address":"3923 E Thomas Rd","city":"Phoenix","state":"AZ","zip":"85018","category":"Hawaiian Restaurant"},{"name":"Hammered Hog BBQ Hall & Saloon","street_address":"3128 E Cactus Rd.","city":"Phoenix","state":"AZ","zip":"85032","category":"BBQ Joint"},{"name":"Toms Bbq","street_address":"5015 E McKellips Rd","city":"Mesa","state":"AZ","zip":"85215","category":"BBQ Joint"},{"name":"Little Miss BBQ","street_address":"4301 E University Dr","city":"Phoenix","state":"AZ","zip":"85034","category":"BBQ Joint"},{"name":"Apache Station BBQ","street_address":null,"city":"Tempe","state":"AZ","zip":"85281","category":"BBQ Joint"},{"name":"BBQ at the pool","street_address":"2510 E 6th St","city":"Tempe","state":"AZ","zip":"85281","category":"Pool"},{"name":"YC's Mongolian Grill","street_address":"3206 S McClintock Dr","city":"Tempe","state":"AZ","zip":"85282","category":"Asian Restaurant"},{"name":"Lucille's Smokehouse Bar-B-Que","street_address":"2030 E Rio Salado Pkwy","city":"Tempe","state":"AZ","zip":"85281","category":"BBQ Joint"},{"name":"Golden Hawaiian BBQ","street_address":"1720 W Southern Ave Ste C3","city":"Mesa","state":"AZ","zip":"85202","category":"BBQ Joint"},{"name":"Alta Ravenwood","street_address":"647 W Baseline Rd","city":"Tempe","state":"AZ","zip":"85283","category":"Residential Building (Apartment / Condo)"},{"name":"Joe's Real BBQ","street_address":"301 N Gilbert Rd","city":"Gilbert","state":"AZ","zip":"85234","category":"BBQ Joint"},{"name":"Honey Bear's BBQ","street_address":"5012 E Van Buren St","city":"Phoenix","state":"AZ","zip":"85008","category":"BBQ Joint"},{"name":"Ono Hawaiian BBQ","street_address":"4972 S Power Rd","city":"Gilbert","state":"AZ","zip":"85236","category":"BBQ Joint"},{"name":"Dillon's KC BBQ Thunderbird","street_address":"8706 W Thunderbird Rd","city":"Peoria","state":"AZ","zip":"85381","category":"BBQ Joint"},{"name":"Angry Crab Shack & BBQ","street_address":"3820 E Ray Rd Ste 30","city":"Phoenix","state":"AZ","zip":"85044","category":"Cajun / Creole Restaurant"},{"name":"Porkopolis Evolution of BBQ","street_address":"1445 S Arizona Ave","city":"Chandler","state":"AZ","zip":"85286","category":"BBQ Joint"},{"name":"Famous Dave's","street_address":"1011 N Dobson Rd","city":"Mesa","state":"AZ","zip":"85201","category":"BBQ Joint"},{"name":"Great American Bbq & Beer Festival","street_address":null,"city":"Chandler","state":"AZ","zip":null,"category":"Music Venue"},{"name":"Korean BBQ","street_address":"2711 S Alma School Rd","city":"Phoenix","state":"AZ","zip":null,"category":"Korean Restaurant"},{"name":"Texas BBQ House","street_address":"5037 S 24th St Ste 3","city":"Phoenix","state":"AZ","zip":"85040","category":"BBQ Joint"},{"name":"Chodang Tofu & BBQ","street_address":"501 N Arizona Ave","city":"Chandler","state":"AZ","zip":"85225","category":"Korean Restaurant"},{"name":"YC'S Mongolian Grill","street_address":"752 W Elliot Rd","city":"Tempe","state":"AZ","zip":"85284","category":"Asian Restaurant"},{"name":"Can't Stop Smokin' BBQ","street_address":"7250 W Chandler Blvd","city":"Chandler","state":"AZ","zip":"85226","category":"BBQ Joint"},{"name":"The Barbecue Company Grill and Catering","street_address":"4636 S 36th St","city":"Phoenix","state":"AZ","zip":"85040","category":"BBQ Joint"},{"name":"Dillon's KC BBQ","street_address":"16335 W Northern Ave","city":"Litchfield Park","state":"AZ","zip":"85340","category":"BBQ Joint"}]}